ONEWEB-0424             
1 50497U 21132AE  24073.20900044  .00000105  00000+0  23305-3 0  9990
2 50497  87.9201 139.8684 0001757 117.8306 242.3005 13.18688061112786
ONEWEB-0426             
1 50498U 21132AF  24073.62632503  .00000056  00000+0  10831-3 0  9994
2 50498  87.9197 139.8065 0002742 106.5232 253.6202 13.18687705112780
ONEWEB-0427             
1 50499U 21132AG  24073.43504778  .00000184  00000+0  43365-3 0  9996
2 50499  87.9197 139.8207 0002247 107.9387 252.1990 13.18683716112781
ONEWEB-0429             
1 50500U 21132AH  24073.87766738 -.00004838  00000+0 -12306-1 0  9994
2 50500  87.9204 139.7331 0001298 112.2224 247.9046 13.18708870114105
ONEWEB-0430             
1 50501U 21132AJ  24073.41134667 -.00000028  00000+0 -10255-3 0  9995
2 50501  87.9202 139.8334 0001556 107.4235 252.7067 13.18684581112795
ONEWEB-0432             
1 50502U 21132AK  24073.44294944 -.00000131  00000+0 -36449-3 0  9992
2 50502  87.9198 139.8210 0001906 101.4765 258.6581 13.18685514112753
ONEWEB-0440             
1 50503U 21132AL  24073.88557286  .00000021  00000+0  19787-4 0  9995
2 50503  87.9202 139.7191 0002322  87.1100 273.0298 13.18688195114096
ONEWEB-0450             
1 50504U 21132AM  24073.87924279 -.00000016  00000+0 -72753-4 0  9993
2 50504  87.9201 139.7485 0001724  93.2930 266.8399 13.18688092112834
